CORRECTED ACCELEROGRAM                              CHAN 1
UNCORRECTED ACCELEROGRAM DATA              PROCESSED: 05/28/2010
MAULE 2010
01/01/1980 0:00:00 (GMT)                (ORIGIN: 01/01/1980 0:00:00 GMT)
                                   TRIGGER TIME: 1/1/1980 0:00:00.000 GMT
STATION NO.          0.000N    0.000E  SMA       S/N  0   (3  CHNS OF 3  AT STA)
CONSTITUCION S/N 4598
CHAN  1:  L       (STA CHN:  1)               
UNIVERSIDAD DE CHILE - RENADIC
HYPOCENTER:   0.000N    0.000E  H=   0.0KM   MW=8.8
INSTR PERIOD = 0.0390 SEC,  DAMPING =0.6000,  SENSITIVITY =1.000 VDC/G
                        RECORD LENGTH =143.285 SEC
                                     UNCOR MAX  =  0.552 G, AT  32.655 SEC
RMS ACCEL OF (UNCOR) RECORD  = 0.095 G
ACCELEROGRAM BANDPASS FILTERED WITH RAMPS AT 0.150-0.250 AND 23.00-25.00 CYC/SEC
 28657 POINTS OF INSTRUMENT- AND BASELINE-CORRECTED ACCEL, VELOC, AND DISPL DATA
AT EQUALLY-SPACED INTERVALS OF   0.005  SEC.
PEAK ACCELERATION =   527.295    CM/SEC/SEC  AT   32.650   SEC.
PEAK   VELOCITY   =    43.315      CM/SEC    AT   24.525   SEC.
PEAK DISPLACEMENT =     9.760        CM      AT   24.995   SEC.
INITIAL VELOCITY  =    -0.144   CM/SEC;   INITIAL DISPLACEMENT =   -0.011   CM
UNIVERSIDAD DE CHILE - RENADIC



    1    1    1    3    3    0    1    0    0    0    0    0    0    0    0    0
    0    0    0    0    0    0    0    0    0    0    028657   10   21   30    0
    0    0    0    0    0    0    0    0    0    0    0    0    0    0    0    0
    0    0286572865728657    1   10   10    0    0   30   21   10   10    028657
    028657    0    0    0    0    0    0    0    0    0    0    0    0    0    0
    0    0    0    0    0    0    0    0    0    0    0    0    0    0    0    0
    0    0    0    0
     0.039     0.600   143.285     0.095     0.100     1.000     0.552    32.655
    25.641     0.000     0.000     0.000     5.000     0.000     5.000     5.000
     0.000     0.000     0.000     0.000     0.000     0.000     0.000     0.000
     0.000     0.000     0.000     0.000     0.000     0.000     0.000     0.000
     0.000     0.000     0.000     0.000     0.000     0.000     0.000     0.000
     0.000     0.000     0.000     0.000     0.000     0.000     0.000     0.000
     0.000     0.000     0.000    98.067     0.005   143.285     0.000     0.000
     0.000    25.000     2.000   143.285     0.005     0.250     0.100     0.000
    32.650   527.295    24.525    43.315    24.995     9.760    -0.144     0.250
    23.000     0.005     0.005    -0.011     0.000     0.000     0.000     0.000
     0.000     0.000     0.000     0.000     0.000     0.000     0.000     0.000
     0.000     0.000     0.000     0.000     0.000     0.000     0.000     0.000
     0.000     0.000     0.000     0.000
28657 POINTS OF ACCEL DATA EQUALLY SPACED AT 0.005 SEC.  (UNITS: CM/SEC/SEC)
[...]
   103.457    72.097    39.945     6.406   -28.617   -64.371   -99.260  -131.246
  -158.430  -179.738  -195.033  -205.133  -211.360  -215.020  -217.011  -217.720
  -217.191  -215.428  -212.603  -209.152  -205.408  -201.368  -196.453  -189.564
  -179.436  -165.178  -146.745  -125.119  -102.062   -79.615   -59.300   -41.683
   -26.226   -11.608     3.665    20.599    39.294    58.917    78.068    95.289
   109.685   121.152   130.361   138.442   146.566   155.583   165.851   177.276
   189.489   202.014   214.446   226.450   237.723   247.957   256.841   264.119
   269.660   273.474   275.649   276.189   274.898   271.295   264.707   254.500
   240.384   222.675   202.386   181.085   160.549   142.309   127.251   115.388
   105.895    97.387    88.338    77.517    64.292    48.733    31.485    13.504
    -4.309   -21.374   -37.591   -53.307   -69.149   -85.763  -103.569  -122.581
  -142.373  -162.122  -180.841  -197.565  -211.563  -222.487  -230.422  -235.857
  -239.564  -242.429  -245.266  -248.582  -252.537  -256.867  -260.989  -264.188
  -265.860  -265.714  -263.873  -260.802  -257.099  -253.091  -248.646  -242.950
  -234.619  -222.044  -203.879  -179.512  -149.332  -114.667   -77.441   -39.510
    -2.251    33.869    69.245   104.790   141.382   179.346   218.173   256.571
   292.807   325.333   353.083   375.792   393.880   408.086   419.019   426.789
   430.879   430.288   423.846   410.753   390.703   364.127   332.063   295.882
   256.989   216.560   175.416   134.022    92.551    51.155     9.874   -31.152
   -71.686  -111.394  -149.873  -186.676  -221.373  -253.601  -283.156  -309.853
  -333.713  -354.697  -372.612  -386.989  -397.073  -401.956  -400.846  -393.407
  -380.094  -362.094  -341.437  -320.432  -301.180  -285.068  -272.463  -262.726
  -254.533  -246.393  -237.211  -226.452  -214.464  -202.077  -190.255  -179.705
  -170.638  -162.758  -155.438  -147.994  -139.964  -131.026  -121.241  -110.731
   -99.589   -87.805   -75.293   -61.970   -47.837   -32.992   -17.611    -1.626
    15.072    32.840    52.130    73.303    96.450   121.302   147.290   173.738
   200.061   226.158   252.140   278.379   305.173   332.444   359.542   385.270
   408.129   426.713   440.065   448.164   451.637   451.755   449.980   447.531
   445.054   442.524   439.369   434.778   427.998   418.831   407.381   394.156
   379.743   364.489   348.291   330.562   310.411   286.967   259.668   228.732
   194.818   159.051   122.591    86.249    50.247    14.235   -22.445   -60.333
   -99.512  -139.157  -177.991  -214.422  -247.140  -275.581  -300.149  -322.080
  -342.999  -364.324  -386.813  -410.065  -433.000  -453.999  -471.482  -484.348
  -492.170  -495.138  -493.805  -488.798  -480.697  -469.750  -456.355  -440.915
  -423.908  -405.750  -386.552  -365.905  -342.830  -315.979  -284.119  -246.358
  -202.914  -154.961  -104.477   -53.789    -5.047    40.176    81.048   117.378
   149.301   177.275   201.541   222.389   240.205   255.583   269.340   282.397
   295.560   309.306   323.598   338.165   352.268   365.152   376.144   384.734
   390.563   393.398   393.127   389.802   383.639   375.286   365.343   354.427
   342.869   330.555   316.942   301.253   282.798   261.252   236.706   209.784
   180.937   150.358   117.756    82.508    44.110     2.739   -40.335   -82.739
  -121.539  -153.825  -178.012  -194.202  -204.294  -211.423  -218.958  -229.442
  -243.854  -261.445  -280.238  -297.608  -311.559  -321.083  -326.391  -328.622
  -329.315  -329.861  -331.157  -333.524  -336.877  -340.623  -344.143  -346.509
  -346.485  -342.541  -333.041  -316.628  -292.678  -261.663  -225.311  -186.086
  -147.012  -110.735   -78.997   -52.348   -30.214   -11.270     6.031    22.995
    40.329    58.356    76.755    95.016   112.539   128.682   142.743   153.907
   161.276   163.985   161.368   153.455   140.760   124.542   106.571    88.791
    72.929    60.162    50.932    44.968    41.421    39.418    37.983    36.490
    34.648    32.422    29.875    27.030    23.807    20.075    15.696    10.869
     5.785     0.785    -3.879    -8.219   -12.595   -17.650   -24.087   -32.375
   -42.565   -53.964   -65.608   -76.319   -85.107   -91.435   -95.290   -97.049
   -97.206   -96.100   -93.814   -89.987   -84.328   -76.615   -66.885   -55.398
   -42.461   -28.181   -12.317     5.688    26.413    50.312    77.092   105.807
   134.970   162.922   188.276   210.225   228.588   243.568   255.292   263.630
   267.733   266.392   258.420   243.181   221.012   193.333   162.412   130.834
   100.836    73.989    50.667    30.315    11.732    -6.486   -25.532   -46.117
   -68.371   -91.894  -115.958  -139.514  -161.654  -181.594  -198.848  -213.310
  -225.265  -235.314  -244.231  -252.769  -261.519  -270.622  -280.003  -289.283
  -297.968  -305.609  -311.919  -316.817  -320.384  -322.779  -324.155  -324.417
  -323.392  -320.683  -315.774  -308.153  -297.460  -283.627  -266.966  -248.140
  -228.057  -207.492  -187.031  -166.757  -146.273  -124.892  -101.978   -77.301
   -51.251   -24.808     0.735    24.364    45.618    64.937    83.525   102.923
   124.402   148.428   174.408   200.822   225.670   247.213   264.354   277.015
   286.018   292.698   298.410   304.119   310.203   316.521   322.621   328.111
   332.709   336.390   339.292   341.601   343.462   344.959   346.147   347.097
   347.866   348.522   348.936   348.812   347.695   345.093   340.649   334.295
   326.302   317.216   307.665   298.230   289.197   280.588   272.221   263.840
   255.248   246.378   237.279   228.061   218.815   209.643   200.605   191.833
   183.551   176.048   169.580   164.234   159.815   155.819   151.513   146.156
   139.160   130.308   119.798   108.169    96.117    84.277    73.039    62.486
    52.430    42.571    32.627    22.480    12.206     2.031    -7.783   -17.047
   -25.723   -33.916   -41.806   -49.531   -57.101   -64.356   -71.031   -76.903
   -81.963   -86.560   -91.428   -97.563  -105.963  -117.310  -131.685  -148.454
  -166.379  -183.949  -199.833  -213.326  -224.591  -234.642  -245.012  -257.274
  -272.477  -290.808  -311.501  -333.054  -353.662  -371.689  -386.031  -396.260
  -402.518  -405.300  -405.115  -402.300  -396.953  -388.995  -378.318  -364.910
  -348.925  -330.657  -310.451  -288.665  -265.557  -241.350  -216.272  -190.603
  -164.699  -138.963  -113.812   -89.636   -66.798   -45.716   -26.803   -10.505
     2.801    12.950    20.131    24.949    28.358    31.460    35.237    40.225
    46.478    53.542    60.685    67.206    72.713    77.272    81.366    85.707
    91.000    97.639   105.727   115.043   125.219   135.930   147.034   158.610
   170.875   184.028   198.101   212.740   227.333   241.023   252.933   262.413
   269.251   273.765   276.709   278.997   281.321   283.620   284.984   283.572
   277.014   263.067   240.358   208.949   170.514   128.007    84.932    44.278
     7.894   -24.015   -52.688   -80.168  -108.424  -138.597  -170.595  -203.183
  -234.425  -262.460  -285.870  -304.102  -317.412  -326.606  -332.704  -336.642
  -339.089  -340.359  -340.318  -338.473  -333.757  -324.769  -310.002  -288.266
  -259.143  -223.288  -182.407  -138.856   -94.934   -52.338   -11.528    28.088
    67.688   108.295   150.126   192.332   233.252   271.066   304.568   333.458
   358.532   380.977   401.639   420.392   435.987   446.467   449.983   445.633
   433.983   416.765   396.454   375.166   353.943   332.497   309.567   283.691
   254.051   220.980   185.977   150.981   117.876    87.648    60.185    34.504
     9.304   -16.448   -43.164   -70.646   -98.360  -126.030  -153.606  -181.417
  -209.830  -238.869  -267.987  -296.129  -322.101  -345.057  -364.821  -382.127
  -397.970  -413.185  -427.761  -440.463  -448.912  -450.113  -441.274  -420.632
  -387.947  -344.803  -293.922  -238.672  -182.230  -126.952   -74.063   -23.734
    24.546    71.424   117.209   161.307   202.425   238.544   267.345   286.706
   295.152   292.175   278.327   255.087   224.601   189.069   150.692   111.180
    71.683    32.818    -5.185   -42.297   -78.492  -113.600  -147.160  -178.618
  -207.037  -231.438  -250.911  -264.827  -273.024  -275.914  -274.452  -269.944
  -263.666  -256.729  -249.479  -241.637  -232.418  -220.887  -206.395  -188.910
  -169.126  -148.279  -127.710  -108.646   -91.537   -76.208   -62.008   -48.196
   -34.344   -20.585    -7.608     3.587    12.122    17.355    19.383    18.758
    16.303    12.811     8.805     4.461    -0.313    -5.703   -11.753   -18.514
   -25.702   -33.005   -40.096   -46.665   -52.390   -56.887   -59.713   -60.437
   -58.728   -54.708   -48.666   -41.181   -32.844   -23.987   -14.501    -3.825
     8.852    24.258    42.767    64.002    87.232   111.427   135.700   159.603
   183.238   207.093   231.697   257.228   283.296   308.681   331.850   351.079
   364.876   372.231   372.707   366.368   353.618   335.020   311.228   282.712
   250.067   213.824   174.522   132.734    89.095    44.343    -0.666   -44.968
   -87.522  -127.539  -164.299  -197.417  -226.734  -252.150  -273.416  -289.989
  -301.059  -305.780  -303.593  -294.791  -280.390  -262.183  -242.218  -222.149
  -202.649  -183.133  -161.937  -136.917  -106.224   -69.234   -26.641    19.477
    66.291   111.038   151.774   187.792   219.572   248.329   275.397   301.443
   326.403   349.330   368.773   383.265   391.764   393.916   390.073   381.120
   368.262   352.603   335.268   317.167   299.038   281.440   264.710   248.890
   233.687   218.512   202.679   185.479   166.692   146.576   125.899   105.724
    87.054    70.467    55.869    42.480    29.122    14.476    -2.229   -21.062
   -41.308   -61.697   -80.832   -97.661  -111.799  -123.606  -133.953  -143.985
  -154.484  -165.721  -177.337  -188.491  -198.149  -205.393  -209.644  -210.722
  -208.732  -204.027  -196.817  -187.195  -175.072  -160.251  -142.548  -121.926
   -98.615   -73.176   -46.469   -19.714     5.846    29.005    48.819    64.763
    76.773    85.174    90.484    93.174    93.502    91.319    86.308    78.068
    66.360    51.272    33.245    12.976    -8.753   -31.213   -53.759   -75.875
   -96.934  -116.250  -133.121  -146.998  -157.698  -165.520  -171.183  -175.544
  -179.189  -182.178  -183.770  -182.675  -177.444  -166.978  -150.923  -129.793
  -104.780   -77.344   -48.759   -19.915     8.814    37.274    65.249    92.259
   117.560   140.361   160.137   176.858   191.020   203.342   214.482   224.620
   233.328   239.710   242.754   241.748   236.551   227.607   215.720   201.639
   185.844   168.401   149.124   127.877   104.838    80.598    56.008    31.868
     8.621   -13.832   -35.958   -58.305   -81.112  -104.071  -126.371  -147.011
  -165.231  -180.870  -194.442  -206.923  -219.254  -231.903  -244.605  -256.441
  -266.210  -272.920  -276.161  -276.187  -273.674  -269.300  -263.313  -255.388
  -244.795  -230.826  -213.284  -192.780  -170.688  -148.762  -128.570  -111.008
   -96.090   -83.117   -71.116   -59.360   -47.710   -36.662   -27.094   -19.855
   -15.422   -13.758   -14.453   -16.996   -21.037   -26.477   -33.327   -41.441
   -50.284   -58.915   -66.232   -71.391   -74.219   -75.349   -75.990   -77.377
   -80.134   -83.844   -87.065   -87.825   -84.415   -76.123   -63.639   -48.841
   -34.090   -21.304   -11.208    -3.082     4.883    14.765    27.992    44.767
    63.947    83.589   101.773   117.386   130.516   142.321   154.430   168.191
   184.063   201.502   219.154   235.486   249.369   260.438   269.089   276.162
   282.491   288.549   294.327   299.554   303.892   307.274   309.956   312.358
   314.727   316.793   317.590   315.538   308.772   295.719   275.457   248.103
   214.815   177.550   138.602   100.082    63.466    29.330    -2.692   -33.565
   -64.579   -96.769  -130.527  -165.425  -200.327  -233.775  -264.545  -292.151
  -317.129  -340.803  -364.940  -390.914  -419.051  -448.283  -476.295  -500.168
  -517.303  -526.270  -527.295  -521.990  -512.822  -501.973  -490.449  -477.611
  -461.358  -438.913  -407.894  -367.286  -317.959  -262.385  -204.099  -146.569
   -92.326   -42.495     3.123    45.506    85.652   123.945   159.836   192.140
   219.302   240.126   254.198   262.042   264.956   264.619   262.640   260.218
   257.955   256.063   254.310   252.364   249.896   246.642   242.413   237.095
   230.696   223.400   215.588   207.972   201.242   196.012   192.548   190.602
   189.395   187.780   184.549   178.782   170.086   158.866   145.970   132.575
   119.796   108.385    98.572    90.114    82.483    75.150    67.771    60.474
    53.547    47.426    42.421    38.522    35.340    32.181    28.254    22.907
    15.766     6.995    -3.042   -13.757   -24.564   -35.012   -44.809   -53.758
   -61.646   -68.158   -72.909   -75.353   -75.194   -72.343   -67.010   -59.649
   -50.804   -40.934   -30.293   -18.925    -6.824     6.074    19.458    32.785
    45.330    56.378    65.429    72.305    77.115    80.078    81.264    80.640
    77.810    72.383    64.192    53.500    41.042    27.837    14.867     2.736
    -8.546   -19.297   -30.146   -41.462   -53.122   -64.492   -74.684   -82.989
   -89.258   -94.063   -98.554  -103.825  -110.671  -119.055  -128.158  -136.735
  -143.667  -148.451  -151.384  -153.362  -155.422  -157.993  -160.830  -162.868
  -162.695  -159.163  -151.916  -141.587  -129.586  -117.584  -106.987   -98.372
   -91.748   -86.665   -82.699   -79.786   -78.278   -78.707   -81.395   -86.134
   -92.177   -98.301  -103.536  -107.387  -110.043  -112.197  -114.592  -117.543
  -120.656  -122.923  -123.201  -120.588  -115.126  -107.667   -99.550   -91.981
   -85.429   -79.341   -72.333   -62.764   -49.520   -32.381   -12.417     8.551
    28.594    46.379    61.610    75.022    87.972   101.827   117.396   134.861
   153.627   172.847   191.764   209.949   227.289   243.795   259.357   273.611
   285.943   295.845   302.852   306.775   307.545   304.981   298.603   287.647
   271.357   249.472   222.661   192.888   162.959   136.032   114.733   100.392
    92.694    89.874    89.392    88.816    86.527    82.218    76.496    70.503
    65.231    61.058    57.651    54.214    49.935    44.371    37.565    30.046
    22.278    14.469     6.381    -2.552   -12.920   -24.984   -38.484   -52.698
   -66.763   -79.927   -92.031  -103.422  -114.776  -126.739  -139.571  -152.991
  -166.256  -178.445  -188.827  -196.967  -202.933  -207.005  -209.450  -210.319
  -209.397  -206.332  -200.842  -192.887  -182.719  -170.633  -156.907  -141.518
  -124.170  -104.500   -82.413   -58.388   -33.591    -9.701    11.486    28.658
    41.227    49.526    54.559    57.542    59.421    60.561    60.743    59.437
    56.198    51.103    44.750    38.179    32.496    28.480    26.336    25.700
    25.874    26.166    26.162    25.925    25.786    26.198    27.480    29.688
    32.653    36.130    39.982    44.284    49.269    55.245    62.316    70.315
    78.789    87.125    94.734   101.226   106.492   110.670   114.032   116.894
   119.465   121.855   124.088   126.132   127.925   129.381   130.392   130.865
   130.778   130.281   129.691   129.483   130.153   132.052   135.233   139.412
   144.054   148.573   152.529   155.769   158.353   160.381   161.741   161.941
   160.117   155.268   146.613   133.939   117.773    99.288    79.963    61.140
    43.638    27.590    12.534    -2.295   -17.609   -33.826   -50.994   -68.914
   -87.315  -106.011  -124.938  -144.054  -163.206  -182.034  -200.000  -216.528
  -231.175  -243.771  -254.358  -263.055  -269.843  -274.412  -276.177  -274.456
  -268.753  -259.010  -245.689  -229.707  -212.100  -193.746  -175.126  -156.267
  -136.867  -116.526   -94.975   -72.214   -48.529   -24.510    -0.896    21.402
    41.344    57.839    69.903    76.917    78.888    76.597    71.531    65.452
    59.972    55.958    53.272    50.885    47.372    41.605    33.363    23.572
    14.091     6.978     3.830     5.098     9.948    16.605    23.042    27.708
    30.000    30.271    29.458    28.378    27.384    26.091    23.650    19.265
    12.731     4.737    -3.241    -9.405   -12.233   -11.131    -6.457     0.560
     8.369    15.709    22.079    27.884    34.216    42.378    53.363    67.311
    83.549   100.605   116.612   129.765   138.718   142.807   142.073   137.087
   128.718   117.713   104.705    90.018    73.771    56.054    37.106    17.445
    -2.135   -20.691   -37.319   -51.530   -63.193   -72.699   -80.800   -88.380
   -96.195  -104.669  -113.821  -123.302  -132.508  -140.898  -147.910  -153.186
  -156.534  -157.889  -157.262  -154.711  -150.339  -144.313  -136.838  -128.306
  -119.013  -109.262   -99.255   -89.052   -78.553   -67.531   -55.691   -42.772
   -28.599   -13.336     2.730    19.056    34.982    49.865    63.213    74.756
    84.419    92.210    98.096   101.705   102.564   100.039    93.626    83.212
    69.255    52.772    35.112    17.587     1.125   -14.141   -28.581   -42.951
   -57.891   -73.486   -89.039  -103.153  -114.121  -120.471  -121.424  -117.328
  -109.303   -99.029   -88.152   -77.792   -68.281   -59.218   -49.785   -39.195
